[{"OBJECT_NAME":"ASRTU-1 (AO-123)","OBJECT_ID":"2024-199AY","EPOCH":"2026-03-09T22:36:42.151392","MEAN_MOTION":15.34070057,"ECCENTRICITY":0.0012786,"INCLINATION":97.3152,"RA_OF_ASC_NODE":298.5256,"ARG_OF_PERICENTER":309.3392,"MEAN_ANOMALY":50.6717,"EPHEMERIS_TYPE":0,"CLASSIFICATION_TYPE":"U","NORAD_CAT_ID":61781,"ELEMENT_SET_NO":999,"REV_AT_EPOCH":11870,"BSTAR":0.00032267684,"MEAN_MOTION_DOT":0.00010589,"MEAN_MOTION_DDOT":0},{"OBJECT_NAME":"STARLINK-36116","OBJECT_ID":"2025-286Z","EPOCH":"2026-03-09T22:30:48.772800","MEAN_MOTION":15.30207627,"ECCENTRICITY":0.00011969,"INCLINATION":53.1614,"RA_OF_ASC_NODE":357.373,"ARG_OF_PERICENTER":110.8378,"MEAN_ANOMALY":249.2751,"EPHEMERIS_TYPE":0,"CLASSIFICATION_TYPE":"U","NORAD_CAT_ID":66948,"ELEMENT_SET_NO":999,"REV_AT_EPOCH":1544,"BSTAR":0.00091118171,"MEAN_MOTION_DOT":0.00026731,"MEAN_MOTION_DDOT":0}]
